[{"OBJECT_NAME":"STARLINK-1122","OBJECT_ID":"2020-001AM","EPOCH":"2026-03-09T23:18:20.689056","MEAN_MOTION":15.30181808,"ECCENTRICITY":0.00012878,"INCLINATION":53.1607,"RA_OF_ASC_NODE":318.3008,"ARG_OF_PERICENTER":105.0684,"MEAN_ANOMALY":255.0459,"EPHEMERIS_TYPE":0,"CLASSIFICATION_TYPE":"U","NORAD_CAT_ID":44949,"ELEMENT_SET_NO":999,"REV_AT_EPOCH":34027,"BSTAR":-0.00011242947,"MEAN_MOTION_DOT":-3.685e-5,"MEAN_MOTION_DDOT":0},{"OBJECT_NAME":"HAWK-2A","OBJECT_ID":"2021-006CW","EPOCH":"2026-03-09T16:18:25.817472","MEAN_MOTION":15.33304498,"ECCENTRICITY":0.00064498,"INCLINATION":97.2459,"RA_OF_ASC_NODE":115.6184,"ARG_OF_PERICENTER":187.1463,"MEAN_ANOMALY":172.9689,"EPHEMERIS_TYPE":0,"CLASSIFICATION_TYPE":"U","NORAD_CAT_ID":47505,"ELEMENT_SET_NO":999,"REV_AT_EPOCH":28424,"BSTAR":0.0002543136,"MEAN_MOTION_DOT":8.113e-5,"MEAN_MOTION_DDOT":0}]
